OBJECT_NAME,OBJECT_ID,EPOCH,MEAN_MOTION,ECCENTRICITY,INCLINATION,RA_OF_ASC_NODE,ARG_OF_PERICENTER,MEAN_ANOMALY,EPHEMERIS_TYPE,CLASSIFICATION_TYPE,NORAD_CAT_ID,ELEMENT_SET_NO,REV_AT_EPOCH,BSTAR,MEAN_MOTION_DOT,MEAN_MOTION_DDOT
UWE-4,2018-111E,2026-05-19T06:24:40.012128,15.44192988,.0010412,97.5864,66.3694,75.3318,284.9083,0,U,43880,999,40631,.4384226E-3,.20085E-3,0
D-STAR ONE (SPARROW),2018-111F,2026-05-19T06:21:28.990368,15.66751013,.00073664,97.6134,77.5447,97.4411,262.7686,0,U,43881,999,40683,.70183994E-3,.74292E-3,0
JILIN-1 09,2019-005B,2026-05-19T06:53:24.876672,15.20228878,.00026846,97.4725,234.5052,154.9755,205.1611,0,U,43943,999,40475,.13633503E-3,.2887E-4,0
JILIN-1 10,2019-005E,2026-05-19T06:23:06.302688,15.25373254,.00086288,97.4767,238.0814,31.5095,328.6658,0,U,43946,999,40490,.14331855E-3,.3545E-4,0
EGYPTSAT-A (MISRSAT-A),2019-008A,2026-05-19T07:51:07.031808,14.72268294,.00012432,98.0049,204.5121,81.5931,278.5417,0,U,44047,999,38899,-.124616E-5,-.57E-6,0
EMISAT,2019-018A,2026-05-19T07:29:47.004576,14.43671475,.00174495,98.4660,198.2674,307.3642,52.5959,0,U,44078,999,37589,-.17136868E-4,-.103E-5,0
JILIN-1 GAOFEN 3A,2019-032C,2026-05-19T08:02:21.311232,15.31935933,.00036712,44.9726,155.6435,144.4171,215.6958,0,U,44312,999,38341,.1969191E-3,.5885E-4,0
WT 1B,2019-032G,2026-05-19T06:46:10.620768,15.26583256,.00075272,44.9722,218.6414,81.6602,278.5133,0,U,44316,999,38266,.27121096E-3,.6946E-4,0
PROX-1,2019-036A,2026-05-19T03:08:42.045216,14.89858782,.00067718,23.9964,308.2336,55.6942,304.4198,0,U,44339,999,36913,.85428943E-3,.8698E-4,0
NPSAT1,2019-036B,2026-05-19T01:59:56.834016,14.74280686,.00076867,23.9994,47.2625,240.3133,119.6598,0,U,44340,999,36819,.49410191E-3,.359E-4,0
FORMOSAT 7-3,2019-036E,2026-05-18T23:17:17.579040,15.09557168,.00004779,24.0002,19.5896,314.2829,45.7636,0,U,44343,999,37882,.16999695E-3,.3145E-4,0
FORMOSAT 7-1,2019-036L,2026-05-18T13:46:43.711392,14.96371837,.0000747,23.9972,232.0179,161.9550,198.0978,0,U,44349,999,38021,.11461412E-3,.1632E-4,0
FORMOSAT 7-4,2019-036M,2026-05-18T19:07:02.046144,14.96366889,.00009203,23.9986,292.6229,191.6556,168.3923,0,U,44350,999,37966,.12365546E-3,.1736E-4,0
FORMOSAT 7-2,2019-036N,2026-05-18T16:27:11.431008,14.96363440,.00005151,23.9993,347.6836,183.0694,176.9804,0,U,44351,999,37916,.12431031E-3,.1744E-4,0
FORMOSAT 7-6,2019-036Q,2026-05-18T18:03:03.993984,14.96372526,.00014178,23.9962,168.0519,111.7338,248.3314,0,U,44353,999,37740,.10007542E-3,.1463E-4,0
FORMOSAT 7-5,2019-036V,2026-05-19T04:42:37.005696,14.96373817,.00004383,23.9979,103.8060,162.6424,197.4091,0,U,44358,999,37800,.11050825E-3,.1584E-4,0
METEOR-M2 2,2019-038A,2026-05-19T05:35:24.355392,14.24356911,.00023838,98.9136,126.0933,92.7253,267.4198,0,U,44387,999,35717,.7827982E-5,-.28E-6,0
COSMOS 2535,2019-039A,2026-05-19T07:15:23.955840,14.91876833,.00070478,97.5778,168.5705,317.2634,42.8036,0,U,44421,999,37233,.67903154E-4,.633E-5,0
GLOBAL-4,2019-054E,2026-05-18T22:22:58.435392,15.61434962,.00041469,45.0079,44.8248,157.4479,202.6601,0,U,44499,999,37578,.39118746E-3,.33991E-3,0
ZY-1 02D,2019-059A,2026-05-19T06:45:05.837184,14.35449498,.0001269,98.3201,201.7867,152.1789,207.9466,0,U,44528,999,35019,-.4494544E-5,-.55E-6,0
TAURUS-1 (JINNIUZUO 1),2019-059C,2026-05-19T06:48:53.298144,14.71749027,.00091244,98.6399,302.3296,50.6114,309.5898,0,U,44530,999,35439,.5816065E-3,.3577E-4,0
ZHUHAI-1 03B,2019-060C,2026-05-19T07:42:33.225696,15.52365529,.00094036,97.5507,295.5726,68.6716,291.5539,0,U,44536,999,37184,.30871401E-3,.18765E-3,0
ZHUHAI-1 03C,2019-060D,2026-05-19T07:13:03.548064,15.99014615,.00059287,97.5421,308.5492,295.3514,64.7149,0,U,44537,999,37264,.85545479E-3,.409981E-2,.72866837E-4
ZHUHAI-1 03D,2019-060E,2026-05-19T08:17:05.534880,15.47996692,.00078439,97.5367,287.9731,55.8898,304.3095,0,U,44538,999,37161,.37222356E-3,.19397E-3,0
ZHUHAI-1 03E,2019-060F,2026-05-19T08:08:20.361120,15.40039015,.00072211,97.5584,288.3150,123.1689,237.0250,0,U,44539,999,37132,.2804344E-3,.11128E-3,0
ATLAS 5 CENTAUR DEB,2018-079BG,2026-05-18T09:32:49.007616,1.77432531,.47283936,13.5935,41.7173,294.4630,24.0227,0,U,44694,999,4603,0,-.81E-6,0
GAOFEN-7,2019-072A,2026-05-19T07:50:24.465120,15.21352797,.00178737,97.2440,201.8749,133.4491,226.8236,0,U,44703,999,36325,.11451553E-3,.2508E-4,0
JILIN-1 GAOFEN 2A,2019-075A,2026-05-19T06:20:42.319680,15.38455742,.00068597,97.4964,222.3977,173.8490,186.2840,0,U,44777,999,36043,.23682278E-3,.8906E-4,0
NINGXIA-1 1,2019-076A,2026-05-19T04:18:36.531936,14.02035883,.00107988,45.0065,309.4815,17.8390,342.2822,0,U,44779,999,33378,.31359801E-4,-.82E-6,0
NINGXIA-1 5,2019-076E,2026-05-19T04:39:10.519200,14.02084703,.00107771,45.0063,308.7707,7.3279,352.7711,0,U,44783,999,33370,.11191659E-3,.42E-6,0
KL-ALPHA A,2019-077A,2026-05-19T06:27:25.481088,13.56039793,.00109389,88.9269,225.7239,182.1833,177.9275,0,U,44785,999,32181,.13356265E-3,.106E-5,0
CARTOSAT-3,2019-081A,2026-05-19T07:25:11.797248,15.19228240,.00112213,97.4317,201.6364,249.2988,110.7044,0,U,44804,999,35908,.15936724E-3,.3293E-4,0
JILIN-1 GAOFEN 2B,2019-086A,2026-05-19T06:10:35.083200,15.20347716,.00154561,97.4887,211.4360,64.9824,295.3015,0,U,44836,999,35609,.17119441E-3,.3665E-4,0
TIANQIN 1 (CAS-6),2019-093A,2026-05-19T05:58:20.699616,14.95276555,.00123035,97.7805,223.3013,143.9062,216.2992,0,U,44879,999,34772,.17311916E-3,.185E-4,0
ETRSS-1,2019-093B,2026-05-19T06:19:49.264032,14.95689360,.00124619,97.7830,223.7510,143.4883,216.7190,0,U,44880,999,34773,.20745915E-3,.2253E-4,0
TIANYAN 01,2019-093C,2026-05-19T07:14:28.843872,14.86468453,.00135688,97.7539,212.2375,175.4857,184.6484,0,U,44881,999,34712,.12637804E-3,.1065E-4,0
TIANYAN 02,2019-093D,2026-05-19T06:21:18.993888,15.04824457,.00153013,97.7928,233.7887,120.0453,240.2293,0,U,44882,999,34826,.2971241E-3,.4143E-4,0
CBERS 4A,2019-093E,2026-05-19T04:25:35.234976,14.81653221,.00004608,97.7508,207.3513,305.4565,54.6605,0,U,44883,999,34678,.19514196E-4,.103E-5,0
WEILAI 1R,2019-093F,2026-05-19T05:54:45.534240,15.00363008,.00161141,97.7838,229.0997,124.8765,235.3976,0,U,44884,999,34808,.24741118E-3,.3053E-4,0
FLORIPASAT-1,2019-093G,2026-05-19T06:41:35.968992,15.03525596,.00122565,97.7900,233.3058,164.0948,196.0665,0,U,44885,999,34830,.37572415E-3,.5072E-4,0
SHUNTIAN,2019-093H,2026-05-19T07:05:19.026240,14.94993761,.00122465,97.8003,227.6079,155.6363,204.5439,0,U,44886,999,34786,.73817604E-4,.75E-5,0
2019-093L,2019-093L,2026-05-19T06:17:45.820032,14.94356776,.0012833,97.7562,217.8683,141.7865,218.4267,0,U,44889,999,34748,.91286756E-4,.926E-5,0
ELEKTRO-L 3,2019-095A,2026-05-19T04:22:23.675808,1.00270742,.0000911,0.1821,80.0444,315.7983,342.5575,0,U,44903,999,2341,0,-.96E-6,0
GONETS-M 14,2019-096A,2026-05-19T07:26:48.585120,12.42868711,.00123482,82.5210,102.5425,212.4257,147.6065,0,U,44905,999,29009,-.27306272E-3,-.28E-6,0
GONETS-M 15,2019-096B,2026-05-19T06:13:16.602816,12.42869955,.00139704,82.5229,103.0309,237.6807,122.2920,0,U,44906,999,29005,-.3604716E-3,-.4E-6,0
GONETS-M 16,2019-096C,2026-05-19T06:51:45.071712,12.42890609,.00097233,82.5176,101.9804,284.8873,75.1130,0,U,44907,999,29004,-.37670051E-3,-.42E-6,0
RS-44 & BREEZE-KM R/B,2019-096E,2026-05-19T01:52:16.833504,12.79748275,.02168705,82.5232,359.0518,212.2095,146.5607,0,U,44909,999,29862,.54343496E-4,.24E-6,0
JILIN-1 KUANFU 01,2020-003A,2026-05-19T06:32:50.439264,15.10542416,.00108126,97.5036,213.7950,49.1390,311.0775,0,U,45016,999,35096,.12334936E-3,.1973E-4,0
XINGYUN-2 01,2020-028A,2026-05-19T06:47:15.071712,15.11672193,.00076957,97.4862,132.2611,313.2574,46.8014,0,U,45602,999,33047,.7540059E-4,.1219E-4,0
XINGYUN-2 02,2020-028B,2026-05-19T06:09:10.323936,15.11407518,.00116645,97.5073,145.7591,21.0859,339.0849,0,U,45603,999,33046,.75542521E-4,.1213E-4,0
HAIYANG-1D,2020-036A,2026-05-19T07:10:22.864800,14.34163216,.00016611,98.4553,81.6092,214.1485,145.9593,0,U,45721,999,31083,.13246602E-3,.328E-5,0
M2 PATHFINDER,2020-037E,2026-05-19T06:00:44.815680,15.04536058,.00099472,97.8160,330.1592,247.5973,112.4199,0,U,45727,999,32114,.79717582E-4,.1054E-4,0
GAOFEN DUOMO (GFDM),2020-042A,2026-05-19T06:38:58.017696,14.76836081,.00113846,97.7760,200.2123,159.1416,201.0261,0,U,45856,999,31674,.971483E-4,.633E-5,0
ZIYUAN 3-03 (ZY 3-03),2020-051A,2026-05-19T07:27:12.795264,15.21272992,.00058586,97.2844,207.9669,57.9014,302.2791,0,U,45939,999,32295,.49243191E-4,.1034E-4,0
NEMO-HD,2020-061F,2026-05-19T07:04:25.790016,15.43957453,.00025808,97.1932,201.5500,115.7452,244.4063,0,U,46277,999,31752,.15496012E-3,.6966E-4,0
3CAT-5A,2020-061W,2026-05-19T05:40:45.149088,15.45125324,.00017228,97.2418,202.1810,166.1875,193.9422,0,U,46292,999,31655,.21769289E-3,.10221E-3,0
3CAT-5B,2020-061X,2026-05-19T02:46:35.868288,15.46417224,.00018956,97.2414,202.9868,171.1043,189.0241,0,U,46293,999,31656,.24541816E-3,.12059E-3,0
NAPA-1,2020-061BA,2026-05-19T06:44:10.550688,15.64192273,.0001831,97.2481,212.5934,140.5429,219.5964,0,U,46320,999,31721,.41242265E-3,.39174E-3,0
JILIN-1 GAOFEN 3E,2020-065D,2026-05-19T06:18:34.065792,15.60201758,.00100507,97.2277,191.2739,258.3865,101.6264,0,U,46457,999,31524,.42714921E-3,.3483E-3,0
JILIN-1 GAOFEN 3F,2020-065E,2026-05-19T07:20:53.921760,15.57949421,.00116983,97.2232,188.7806,247.0624,112.9398,0,U,46458,999,31520,.39827009E-3,.29825E-3,0
JILIN-1 GAOFEN 3G,2020-065F,2026-05-19T07:30:34.022592,15.66166446,.00127042,97.2305,195.1584,151.9859,208.2088,0,U,46459,999,31541,.49876653E-3,.51545E-3,0
JILIN-1 GAOFEN 3H,2020-065G,2026-05-19T07:03:11.250144,15.63612309,.00087869,97.2249,191.6202,101.8826,258.3419,0,U,46460,999,31536,.46102318E-3,.42915E-3,0
HAIYANG-2C,2020-066A,2026-05-19T07:41:01.885344,13.83371515,.00099583,65.9975,287.1553,239.7148,120.2935,0,U,46469,999,28550,-.11992341E-3,-.213E-5,0
HJ-2A,2020-067A,2026-05-19T07:07:34.705344,14.76568768,.00037051,97.8830,218.3496,23.6248,336.5132,0,U,46478,999,30399,-.18333364E-4,-.178E-5,0
